ORBCOMM-X               
1 21576U 91050C   25329.41871539  .00000446  00000+0  14461-3 0  9997
2 21576  98.3250  32.5854 0004670  68.3098 291.8590 14.43414558805374
ORBCOMM FM01            
1 23545U 95017A   25329.46647147  .00008130  00000+0  79355-3 0  9994
2 23545  69.9633  31.3037 0002281 354.6772   5.4359 14.92736021636557
ORBCOMM FM02            
1 23546U 95017B   25329.49183559  .00013762  00000+0  12883-2 0  9999
2 23546  69.9646  49.9677 0003080  23.6041 336.5256 14.94185867636223
ORBCOMM FM08            
1 25112U 97084A   25329.42406162  .00002095  00000+0  61607-3 0  9993
2 25112  45.0143 313.5090 0007779 333.2550  26.7899 14.46494157464710
ORBCOMM FM10            
1 25113U 97084B   25329.15372350  .00002037  00000+0  60320-3 0  9992
2 25113  45.0156 317.4828 0006860 303.7735  56.2462 14.46250118639810
ORBCOMM FM11            
1 25114U 97084C   25329.39390318  .00002196  00000+0  65065-3 0  9990
2 25114  45.0142 317.2603 0007613 306.1666  53.8481 14.45992206464801
ORBCOMM FM12            
1 25115U 97084D   25329.28504030  .00002068  00000+0  61470-3 0  9991
2 25115  45.0147 317.5169 0006747 302.7686  57.2515 14.46014783464585
ORBCOMM FM09            
1 25116U 97084E   25329.26321509  .00001880  00000+0  56422-3 0  9990
2 25116  45.0159 318.7270 0007935 295.3820  64.6209 14.45862837464786
